LEMUR-1                 
1 40044U 14033AL  26170.65188818  .00001544  00000+0  18237-3 0  9991
2 40044  97.7880 320.4021 0049583  70.7750 289.8820 14.85254465645837
LEMUR-2-GREENBERG       
1 42837U 17042N   26170.30871126  .00014389  00000+0  47644-3 0  9994
2 42837  97.3823 350.9230 0008279   6.1746 353.9596 15.31382691488717
LEMUR-2-ANDIS           
1 42838U 17042P   26170.00717597  .00016338  00000+0  48414-3 0  9995
2 42838  97.3678 350.8131 0007995   5.7583 354.3751 15.34901289488736
LEMUR-2-MONSON          
1 42839U 17042Q   26170.06014849  .00010941  00000+0  40227-3 0  9990
2 42839  97.4081 350.6452 0006002 358.9199   1.2027 15.28049146488455
LEMUR-2-FURIAUS         
1 42840U 17042R   26170.23860679  .00015285  00000+0  52300-3 0  9992
2 42840  97.3776 348.8037 0008057  62.8731 297.3331 15.30308008488522
LEMUR-2-PETERG          
1 42841U 17042S   26170.25339517  .00018048  00000+0  55119-3 0  9998
2 42841  97.3993 355.2862 0003020 348.3943  11.7229 15.33950101488753
LEMUR-2-DEMBITZ         
1 42842U 17042T   26170.06227203  .00012966  00000+0  44389-3 0  9996
2 42842  97.3827 351.6540 0006568  22.4740 337.6787 15.30339757488639
LEMUR-2-ZACHARY         
1 42845U 17042W   26170.51360732  .00039087  00000+0  68613-3 0  9993
2 42845  97.3596   2.1994 0002713  23.6039 336.5337 15.50432723489569
LEMUR-2-AMANDA-SVANTE   
1 48269U 21034B   26170.70524793  .00026321  00000+0  79019-3 0  9994
2 48269  97.5757 249.0573 0002666 199.9266 160.1872 15.34420039281448
LEMUR-2-SPECIAL-K       
1 48273U 21034F   26170.77128418  .00136359  00000+0  13644-2 0  9994
2 48273  97.5647 257.8169 0004493 226.0011 134.0878 15.65123092282090
LEMUR-2-EMBRIONOVIS     
1 56970U 23084AQ  26170.34935113  .00011485  00000+0  31328-3 0  9997
2 56970  97.6298 314.6314 0007587 311.4054  48.6537 15.37593761168013
LEMUR-2-DEVERILL-M-T    
1 57391U 23100F   26170.05436228  .00020336  00000+0  51440-3 0  9997
2 57391  99.4465 209.3513 0006143  44.3176 315.8554 15.39829166161533
LEMUR-2-BASS            
1 58259U 23174D   26170.73924503  .00014691  00000+0  33293-3 0  9998
2 58259  97.3843 255.4874 0007878 154.4133 205.7506 15.43165414145752
LEMUR-2-JK0903EM1407    
1 58336U 23174CJ  26170.91666099  .00023763  00000+0  39864-3 0  9997
2 58336  97.3920 261.4638 0005632 112.6831 247.5017 15.51798489146155
LEMUR-2-MJR092620       
1 58340U 23174CN  26170.74959854  .00016468  00000+0  35115-3 0  9996
2 58340  97.3972 260.8257 0007083 110.0654 250.1358 15.44954349146041
LEMUR-2-NIMBUS2000      
1 58899U 24022A   26170.28799938  .00016492  00000+0  41358-3 0  9995
2 58899  97.4106  20.3150 0010377 109.4188 250.8180 15.40057591132599
LEMUR-2-VALHALLA        
1 58900U 24022B   26170.47963015  .00014098  00000+0  35770-3 0  9999
2 58900  97.4104  20.4986 0010888 105.1669 255.0782 15.39731042132629
LEMUR-2-CAEL            
1 58903U 24022E   26170.48751564  .00014858  00000+0  36120-3 0  9991
2 58903  97.4086  21.4465 0009246  90.7126 269.5180 15.41038176132697
LEMUR-2-JOHNNYTRUONG    
1 59146U 24043BA  26170.33022919  .00036354  00000+0  43979-3 0  9998
2 59146  97.5384 322.1659 0004864 169.6430 190.4928 15.60603016128374
LEMUR-2-TOMATOKECHUP    
1 60471U 24149D   26170.77824178  .00008696  00000+0  24976-3 0  9997
2 60471  97.3795 252.8318 0001675 171.0165 189.1109 15.36077275102565
LEMUR-2-STELLA          
1 60533U 24149BT  26170.72923905  .00008707  00000+0  51284-3 0  9994
2 60533  97.6730 253.1954 0001466  96.6271 263.5126 15.11852671100887
LEMUR-2-MARHISYAM       
1 60536U 24149BW  26170.90910964  .00009222  00000+0  55111-3 0  9994
2 60536  97.6878 253.8277 0003296 112.7491 247.4087 15.11306709100899
LEMUR-2-AHMED-ASRAR     
1 60576U 24149DN  26170.94063228  .00009206  00000+0  52846-3 0  9998
2 60576  97.6999 255.9631 0001572  36.1504 323.9833 15.12762468100981
LEMUR-2-LLOYD           
1 60577U 24149DP  26170.76055732  .00008394  00000+0  53056-3 0  9991
2 60577  97.6745 251.8909 0005071 132.7416 227.4240 15.09281826100785
LEMUR-2-SQUIRRELCOMM    
1 60578U 24149DQ  26170.71191900  .00005489  00000+0  36888-3 0  9991
2 60578  97.6706 251.6151 0006107  53.2688 306.9099 15.07173606100788
LEMUR-2-SIERRINI        
1 60579U 24149DR  26170.73453211  .00008405  00000+0  50693-3 0  9991
2 60579  97.6835 253.3380 0006030 157.7673 202.3819 15.10988959100849
LEMUR-2-WILSON          
1 62694U 25009CP  26170.77194350  .00002041  00000+0  19102-3 0  9997
2 62694  97.7028 249.1912 0004131  51.2314 308.9276 14.95176120 77741
LEMUR-2-STAR-FOX        
1 62696U 25009CR  26170.75664247  .00006185  00000+0  46976-3 0  9996
2 62696  97.6953 252.3469 0004084 105.6897 254.4778 15.02534850 77940
LEMUR-2-ARIANNA         
1 62699U 25009CU  26170.75501360  .00006100  00000+0  46355-3 0  9993
2 62699  97.6891 252.1177 0004469 110.9091 249.2612 15.02516292 77949
